IRIDIUM 57 [-]          
1 25273U 98019B   24003.48221673  .00000366  00000+0  12175-3 0  9991
2 25273  86.3963   7.5032 0002233  90.1597 269.9855 14.35033761348860
IRIDIUM 63 [-]          
1 25286U 98021B   24003.35800141  .00000509  00000+0  17019-3 0  9998
2 25286  86.3990 304.4902 0002154  90.7597 269.3846 14.35551267347934
IRIDIUM 69 [-]          
1 25319U 98026A   24003.35441191  .00000526  00000+0  16183-3 0  9996
2 25319  86.3994 319.3665 0002439  29.9179 330.2159 14.39730545346893
IRIDIUM 71 [-]          
1 25320U 98026B   24002.90505870  .00000544  00000+0  16635-3 0  9995
2 25320  86.3985 314.3603 0003996  64.6771 295.4842 14.40058154347359
IRIDIUM 73 [-]          
1 25344U 98032C   24002.75606796  .00000683  00000+0  17042-3 0  9997
2 25344  86.4417 272.0988 0002187  67.0511 293.0924 14.50222105353501
IRIDIUM 82 [-]          
1 25467U 98051A   24003.47799464  .00008634  00000+0  48064-3 0  9991
2 25467  86.3968   3.9110 0143665 106.3153 255.3937 15.04959057343520
IRIDIUM 2 [-]           
1 25527U 98066A   24002.61939973  .00040317  00000+0  72486-3 0  9999
2 25527  85.5154  49.2893 0002291 201.9745 158.1415 15.49680947381884
